[{"OBJECT_NAME":"GSAT0206 (GALILEO 10)","OBJECT_ID":"2015-045B","EPOCH":"2026-04-25T15:57:09.169344","MEAN_MOTION":1.70473961,"ECCENTRICITY":0.00021884,"INCLINATION":54.9612,"RA_OF_ASC_NODE":223.054,"ARG_OF_PERICENTER":38.1287,"MEAN_ANOMALY":321.8788,"EPHEMERIS_TYPE":0,"CLASSIFICATION_TYPE":"U","NORAD_CAT_ID":40890,"ELEMENT_SET_NO":999,"REV_AT_EPOCH":6614,"BSTAR":0,"MEAN_MOTION_DOT":-3.8e-7,"MEAN_MOTION_DDOT":0},{"OBJECT_NAME":"BEIDOU-3S IGSO-2S (C56)","OBJECT_ID":"2015-053A","EPOCH":"2026-04-26T20:32:21.837984","MEAN_MOTION":1.0027161,"ECCENTRICITY":0.00636527,"INCLINATION":49.3035,"RA_OF_ASC_NODE":259.3896,"ARG_OF_PERICENTER":190.0802,"MEAN_ANOMALY":170.2721,"EPHEMERIS_TYPE":0,"CLASSIFICATION_TYPE":"U","NORAD_CAT_ID":40938,"ELEMENT_SET_NO":999,"REV_AT_EPOCH":3884,"BSTAR":0,"MEAN_MOTION_DOT":-1.77e-6,"MEAN_MOTION_DDOT":0},{"OBJECT_NAME":"GPS BIIF-11 (PRN 10)","OBJECT_ID":"2015-062A","EPOCH":"2026-04-25T22:14:20.419008","MEAN_MOTION":2.00566971,"ECCENTRICITY":0.01112501,"INCLINATION":56.9265,"RA_OF_ASC_NODE":32.8248,"ARG_OF_PERICENTER":231.5206,"MEAN_ANOMALY":127.4823,"EPHEMERIS_TYPE":0,"CLASSIFICATION_TYPE":"U","NORAD_CAT_ID":41019,"ELEMENT_SET_NO":999,"REV_AT_EPOCH":7678,"BSTAR":0,"MEAN_MOTION_DOT":-9.7e-7,"MEAN_MOTION_DDOT":0},{"OBJECT_NAME":"GSAT-15 (GAGAN/PRN 139)","OBJECT_ID":"2015-065A","EPOCH":"2026-04-26T22:37:21.669888","MEAN_MOTION":1.00271973,"ECCENTRICITY":0.00037272,"INCLINATION":0.0682,"RA_OF_ASC_NODE":257.0638,"ARG_OF_PERICENTER":145.1368,"MEAN_ANOMALY":245.589,"EPHEMERIS_TYPE":0,"CLASSIFICATION_TYPE":"U","NORAD_CAT_ID":41028,"ELEMENT_SET_NO":999,"REV_AT_EPOCH":3828,"BSTAR":0,"MEAN_MOTION_DOT":-2.69e-6,"MEAN_MOTION_DDOT":0},{"OBJECT_NAME":"GSAT0209 (GALILEO 12)","OBJECT_ID":"2015-079A","EPOCH":"2026-04-25T05:54:23.550624","MEAN_MOTION":1.70474059,"ECCENTRICITY":0.00056798,"INCLINATION":55.7962,"RA_OF_ASC_NODE":102.7123,"ARG_OF_PERICENTER":329.0159,"MEAN_ANOMALY":30.9454,"EPHEMERIS_TYPE":0,"CLASSIFICATION_TYPE":"U","NORAD_CAT_ID":41174,"ELEMENT_SET_NO":999,"REV_AT_EPOCH":6387,"BSTAR":0,"MEAN_MOTION_DOT":4.6e-7,"MEAN_MOTION_DDOT":0},{"OBJECT_NAME":"GSAT0208 (GALILEO 11)","OBJECT_ID":"2015-079B","EPOCH":"2026-04-26T01:16:15.463200","MEAN_MOTION":1.70473954,"ECCENTRICITY":0.00050504,"INCLINATION":55.7944,"RA_OF_ASC_NODE":102.6873,"ARG_OF_PERICENTER":330.1145,"MEAN_ANOMALY":29.8515,"EPHEMERIS_TYPE":0,"CLASSIFICATION_TYPE":"U","NORAD_CAT_ID":41175,"ELEMENT_SET_NO":999,"REV_AT_EPOCH":6430,"BSTAR":0,"MEAN_MOTION_DOT":4.6e-7,"MEAN_MOTION_DDOT":0},{"OBJECT_NAME":"IRNSS-1E","OBJECT_ID":"2016-003A","EPOCH":"2026-04-21T21:23:25.861920","MEAN_MOTION":1.00277854,"ECCENTRICITY":0.00172458,"INCLINATION":33.1155,"RA_OF_ASC_NODE":60.561,"ARG_OF_PERICENTER":183.4571,"MEAN_ANOMALY":38.526,"EPHEMERIS_TYPE":0,"CLASSIFICATION_TYPE":"U","NORAD_CAT_ID":41241,"ELEMENT_SET_NO":999,"REV_AT_EPOCH":3751,"BSTAR":0,"MEAN_MOTION_DOT":-3.02e-6,"MEAN_MOTION_DDOT":0},{"OBJECT_NAME":"GPS BIIF-12 (PRN 32)","OBJECT_ID":"2016-007A","EPOCH":"2026-04-26T00:20:45.251232","MEAN_MOTION":2.0055414,"ECCENTRICITY":0.00961186,"INCLINATION":55.4924,"RA_OF_ASC_NODE":91.5265,"ARG_OF_PERICENTER":247.0858,"MEAN_ANOMALY":111.8862,"EPHEMERIS_TYPE":0,"CLASSIFICATION_TYPE":"U","NORAD_CAT_ID":41328,"ELEMENT_SET_NO":999,"REV_AT_EPOCH":7479,"BSTAR":0,"MEAN_MOTION_DOT":3.5e-7,"MEAN_MOTION_DDOT":0},{"OBJECT_NAME":"COSMOS 2514 (751)","OBJECT_ID":"2016-008A","EPOCH":"2026-04-26T04:44:11.019264","MEAN_MOTION":2.13102638,"ECCENTRICITY":0.00094881,"INCLINATION":65.0524,"RA_OF_ASC_NODE":314.7909,"ARG_OF_PERICENTER":198.1735,"MEAN_ANOMALY":161.8195,"EPHEMERIS_TYPE":0,"CLASSIFICATION_TYPE":"U","NORAD_CAT_ID":41330,"ELEMENT_SET_NO":999,"REV_AT_EPOCH":7951,"BSTAR":0,"MEAN_MOTION_DOT":-2.6e-7,"MEAN_MOTION_DDOT":0},{"OBJECT_NAME":"BEIDOU-2 IGSO-6 (C13)","OBJECT_ID":"2016-021A","EPOCH":"2026-04-22T20:32:03.319008","MEAN_MOTION":1.00270364,"ECCENTRICITY":0.00558668,"INCLINATION":60.1522,"RA_OF_ASC_NODE":38.5901,"ARG_OF_PERICENTER":232.0601,"MEAN_ANOMALY":343.5038,"EPHEMERIS_TYPE":0,"CLASSIFICATION_TYPE":"U","NORAD_CAT_ID":41434,"ELEMENT_SET_NO":999,"REV_AT_EPOCH":3692,"BSTAR":0,"MEAN_MOTION_DOT":-1.69e-6,"MEAN_MOTION_DDOT":0},{"OBJECT_NAME":"IRNSS-1G","OBJECT_ID":"2016-027A","EPOCH":"2026-04-26T21:01:44.317632","MEAN_MOTION":1.00275749,"ECCENTRICITY":0.00058965,"INCLINATION":5.0697,"RA_OF_ASC_NODE":98.6791,"ARG_OF_PERICENTER":345.6173,"MEAN_ANOMALY":215.6314,"EPHEMERIS_TYPE":0,"CLASSIFICATION_TYPE":"U","NORAD_CAT_ID":41469,"ELEMENT_SET_NO":999,"REV_AT_EPOCH":3666,"BSTAR":0,"MEAN_MOTION_DOT":-3.4e-6,"MEAN_MOTION_DDOT":0},{"OBJECT_NAME":"GSAT0211 (GALILEO 14)","OBJECT_ID":"2016-030A","EPOCH":"2026-04-24T10:00:52.436448","MEAN_MOTION":1.70474087,"ECCENTRICITY":0.00025245,"INCLINATION":55.1119,"RA_OF_ASC_NODE":223.1731,"ARG_OF_PERICENTER":359.1559,"MEAN_ANOMALY":0.8397,"EPHEMERIS_TYPE":0,"CLASSIFICATION_TYPE":"U","NORAD_CAT_ID":41549,"ELEMENT_SET_NO":999,"REV_AT_EPOCH":6175,"BSTAR":0,"MEAN_MOTION_DOT":-3.0e-7,"MEAN_MOTION_DDOT":0},{"OBJECT_NAME":"GSAT0210 (GALILEO 13)","OBJECT_ID":"2016-030B","EPOCH":"2026-04-25T06:16:01.107552","MEAN_MOTION":1.70474037,"ECCENTRICITY":0.00028107,"INCLINATION":55.1104,"RA_OF_ASC_NODE":223.148,"ARG_OF_PERICENTER":225.6811,"MEAN_ANOMALY":134.2889,"EPHEMERIS_TYPE":0,"CLASSIFICATION_TYPE":"U","NORAD_CAT_ID":41550,"ELEMENT_SET_NO":999,"REV_AT_EPOCH":6176,"BSTAR":0,"MEAN_MOTION_DOT":-3.6e-7,"MEAN_MOTION_DDOT":0},{"OBJECT_NAME":"BEIDOU-2 G7 (C03)","OBJECT_ID":"2016-037A","EPOCH":"2026-04-26T22:22:56.659872","MEAN_MOTION":1.00265175,"ECCENTRICITY":0.00077353,"INCLINATION":1.5954,"RA_OF_ASC_NODE":68.8178,"ARG_OF_PERICENTER":354.5704,"MEAN_ANOMALY":237.7044,"EPHEMERIS_TYPE":0,"CLASSIFICATION_TYPE":"U","NORAD_CAT_ID":41586,"ELEMENT_SET_NO":999,"REV_AT_EPOCH":637,"BSTAR":0,"MEAN_MOTION_DOT":-3.62e-6,"MEAN_MOTION_DDOT":0},{"OBJECT_NAME":"EUTELSAT 117 WEST B (WAAS/PRN 131)","OBJECT_ID":"2016-038B","EPOCH":"2026-04-26T21:33:56.230272","MEAN_MOTION":1.00271972,"ECCENTRICITY":4.21e-6,"INCLINATION":0.0123,"RA_OF_ASC_NODE":95.7003,"ARG_OF_PERICENTER":22.0292,"MEAN_ANOMALY":303.6604,"EPHEMERIS_TYPE":0,"CLASSIFICATION_TYPE":"U","NORAD_CAT_ID":41589,"ELEMENT_SET_NO":999,"REV_AT_EPOCH":3614,"BSTAR":0,"MEAN_MOTION_DOT":-2.3e-7,"MEAN_MOTION_DDOT":0},{"OBJECT_NAME":"GSAT0207 (GALILEO 15)","OBJECT_ID":"2016-069A","EPOCH":"2026-04-26T03:01:21.139968","MEAN_MOTION":1.70474012,"ECCENTRICITY":0.0005924,"INCLINATION":55.4667,"RA_OF_ASC_NODE":102.525,"ARG_OF_PERICENTER":317.5272,"MEAN_ANOMALY":42.4215,"EPHEMERIS_TYPE":0,"CLASSIFICATION_TYPE":"U","NORAD_CAT_ID":41859,"ELEMENT_SET_NO":999,"REV_AT_EPOCH":5851,"BSTAR":0,"MEAN_MOTION_DOT":4.5e-7,"MEAN_MOTION_DDOT":0},{"OBJECT_NAME":"GSAT0212 (GALILEO 16)","OBJECT_ID":"2016-069B","EPOCH":"2026-04-25T23:30:22.568832","MEAN_MOTION":1.70474171,"ECCENTRICITY":0.00046568,"INCLINATION":55.4638,"RA_OF_ASC_NODE":102.5243,"ARG_OF_PERICENTER":340.7517,"MEAN_ANOMALY":19.2254,"EPHEMERIS_TYPE":0,"CLASSIFICATION_TYPE":"U","NORAD_CAT_ID":41860,"ELEMENT_SET_NO":999,"REV_AT_EPOCH":5876,"BSTAR":0,"MEAN_MOTION_DOT":4.5e-7,"MEAN_MOTION_DDOT":0}]
